{
    "links": {
        "self": "http://www.neowsapp.com/rest/v1/neo/3553668?api_key=iIulBulltgU6a56xZRHN4H3l9WmuAYTsLGpBGhQ2"
    },
    "id": "3553668",
    "neo_reference_id": "3553668",
    "name": "(2010 XA59)",
    "designation": "2010 XA59",
    "nasa_jpl_url": "http://ssd.jpl.nasa.gov/sbdb.cgi?sstr=3553668",
    "absolute_magnitude_h": 24.9,
    "estimated_diameter": {
        "kilometers": {
            "estimated_diameter_min": 0.0278326768,
            "estimated_diameter_max": 0.0622357573
        },
        "meters": {
            "estimated_diameter_min": 27.8326768072,
            "estimated_diameter_max": 62.2357573367
        },
        "miles": {
            "estimated_diameter_min": 0.0172944182,
            "estimated_diameter_max": 0.0386714948
        },
        "feet": {
            "estimated_diameter_min": 91.3145593761,
            "estimated_diameter_max": 204.1855621004
        }
    },
    "is_potentially_hazardous_asteroid": false,
    "close_approach_data": [
        {
            "close_approach_date": "2010-12-14",
            "close_approach_date_full": "2010-Dec-14 08:40",
            "epoch_date_close_approach": 1292316000000,
            "relative_velocity": {
                "kilometers_per_second": "8.8524326019",
                "kilometers_per_hour": "31868.7573669143",
                "miles_per_hour": "19802.0064872363"
            },
            "miss_distance": {
                "astronomical": "0.0717919277",
                "lunar": "27.9270598753",
                "kilometers": "10739919.467113999",
                "miles": "6673476.5036472262"
            },
            "orbiting_body": "Earth"
        }
    ],
    "orbital_data": {
        "orbit_id": "6",
        "orbit_determination_date": "2017-04-06 08:55:12",
        "first_observation_date": "2010-12-13",
        "last_observation_date": "2010-12-14",
        "data_arc_in_days": 1,
        "observations_used": 23,
        "orbit_uncertainty": "9",
        "minimum_orbit_intersection": ".0475441",
        "jupiter_tisserand_invariant": "4.556",
        "epoch_osculation": "2455544.5",
        "eccentricity": ".2932267125073231",
        "semi_major_axis": "1.455189944602821",
        "inclination": "14.22360666875694",
        "ascending_node_longitude": "84.55376777075436",
        "orbital_period": "641.1770285481632",
        "perihelion_distance": "1.028489381073222",
        "perihelion_argument": "10.06460506656597",
        "aphelion_distance": "1.88189050813242",
        "perihelion_time": "2455553.664826676389",
        "mean_anomaly": "354.8542485825313",
        "mean_motion": ".5614674013121759",
        "equinox": "J2000",
        "orbit_class": {
            "orbit_class_type": "AMO",
            "orbit_class_description": "Near-Earth asteroid orbits similar to that of 1221 Amor",
            "orbit_class_range": "1.017 AU < q (perihelion) < 1.3 AU"
        }
    },
    "is_sentry_object": false
}